OBJECT_NAME,OBJECT_ID,EPOCH,MEAN_MOTION,ECCENTRICITY,INCLINATION,RA_OF_ASC_NODE,ARG_OF_PERICENTER,MEAN_ANOMALY,EPHEMERIS_TYPE,CLASSIFICATION_TYPE,NORAD_CAT_ID,ELEMENT_SET_NO,REV_AT_EPOCH,BSTAR,MEAN_MOTION_DOT,MEAN_MOTION_DDOT
STARLINK-30872,2023-170V,2026-07-06T03:21:08.620704,15.27544701,.00005029,43.0023,103.3704,306.6287,53.4518,0,U,58225,999,15008,-.10488376E-3,-.3143E-4,0
STARLINK-30865,2023-170W,2026-07-06T02:52:01.140960,15.27569826,.00009077,43.0017,234.1833,259.4373,100.6376,0,U,58226,999,14854,-.47092262E-4,-.1557E-4,0
STARLINK-30874,2023-170X,2026-07-05T21:08:38.678208,15.27550344,.00013052,43.0030,246.8748,259.0062,101.0643,0,U,58227,999,14837,-.11833838E-3,-.3514E-4,0
STARLINK-30871,2023-170Y,2026-07-06T05:04:58.014912,15.27558597,.00015131,43.0033,245.0552,262.9312,97.1368,0,U,58228,999,14842,-.97624677E-4,-.2946E-4,0
STARLINK-30861,2023-171A,2026-07-06T10:20:28.520160,15.32489684,.00121094,42.9941,334.6503,298.9473,61.0166,0,U,58230,999,14789,.11120123E-2,.35595E-3,0
STARLINK-30867,2023-171B,2026-07-06T11:12:33.180480,15.27628619,.00021602,43.0068,334.1396,305.3215,54.7434,0,U,58231,999,14790,-.60249294E-3,-.1683E-3,0
STARLINK-30880,2023-171C,2026-07-06T11:07:01.239456,15.27489345,.00014598,43.0038,334.1079,241.1860,118.8845,0,U,58232,999,14790,-.61323796E-3,-.17052E-3,0
STARLINK-30777,2023-171D,2026-07-06T10:50:33.187200,15.27582815,.00013427,43.0033,334.8726,287.9520,72.1186,0,U,58233,999,14789,-.78921856E-4,-.2433E-4,0
STARLINK-30860,2023-171E,2026-07-06T11:01:26.987232,15.27587295,.00005507,43.0015,334.0768,247.4529,112.6264,0,U,58234,999,14790,-.24560121E-4,-.938E-5,0
STARLINK-30853,2023-171G,2026-07-06T17:01:37.877952,15.27579274,.0001243,43.0030,333.3668,132.5876,227.5080,0,U,58236,999,14793,.75414E-4,.1814E-4,0
STARLINK-30866,2023-171H,2026-07-06T10:04:17.391072,15.27575694,.00018207,43.0044,334.6255,237.5541,122.5135,0,U,58237,999,14789,-.24048474E-3,-.6873E-4,0
STARLINK-30817,2023-171J,2026-07-06T12:13:37.981632,15.27567086,.0001287,43.0031,334.4391,282.6871,77.3837,0,U,58238,999,14790,-.16178E-3,-.4709E-4,0
STARLINK-30847,2023-171K,2026-07-06T10:33:55.116864,15.27569043,.00011506,43.0035,334.7838,274.0374,86.0346,0,U,58239,999,14789,-.450875E-4,-.1502E-4,0
STARLINK-30848,2023-171L,2026-07-06T10:06:08.666496,15.27515153,.00017112,42.9982,334.6249,130.4612,229.6389,0,U,58240,999,14789,.56427065E-3,.15267E-3,0
STARLINK-30843,2023-171M,2026-07-05T18:46:47.105760,15.27568196,.0001278,43.0013,338.4344,284.0294,76.0415,0,U,58241,999,14781,-.44108387E-4,-.1475E-4,0
STARLINK-30877,2023-171N,2026-07-06T11:32:54.262176,15.27575804,.00011793,43.0016,334.2181,243.1501,116.9231,0,U,58242,999,14790,.50071193E-4,.1116E-4,0
STARLINK-30864,2023-171P,2026-07-06T10:19:07.544352,15.27558667,.00023428,43.0048,334.7108,281.2339,78.8249,0,U,58243,999,14779,-.50270149E-4,-.1645E-4,0
STARLINK-30854,2023-171Q,2026-07-05T18:43:06.986208,15.27552668,.00015233,43.0047,338.4268,265.2046,94.8632,0,U,58244,999,14779,-.16611989E-3,-.4827E-4,0
STARLINK-30849,2023-171R,2026-07-06T10:13:34.042944,15.27556150,.00012846,43.0025,334.6748,270.7863,89.2841,0,U,58245,999,14789,.19196346E-3,.502E-4,0
STARLINK-30886,2023-171S,2026-07-06T11:36:34.970976,15.27598808,.00012995,43.0017,334.2484,234.8432,125.2298,0,U,58246,999,14790,.1761968E-5,-.214E-5,0
STARLINK-30850,2023-171T,2026-07-06T10:07:58.354752,15.27582213,.00011573,43.0018,334.6451,253.3648,106.7077,0,U,58247,999,14789,.71347557E-4,.1702E-4,0
STARLINK-30823,2023-171U,2026-07-06T10:15:23.887584,15.27582393,.00013224,43.0029,334.6817,269.7483,90.3217,0,U,58248,999,14789,.32544884E-4,.634E-5,0
STARLINK-30873,2023-171V,2026-07-06T10:09:51.513696,15.27566168,.00018946,43.0039,334.6560,262.1294,97.9343,0,U,58249,999,14789,.1902711E-3,.4975E-4,0
STARLINK-30808,2023-171W,2026-07-06T11:30:04.455072,15.30171257,.00034398,42.9976,334.1882,278.4466,81.5997,0,U,58250,999,14790,.17922037E-2,.53531E-3,0
STARLINK-30881,2023-171X,2026-07-05T20:13:30.826560,15.27574796,.00009709,42.9996,337.9466,258.5488,101.5255,0,U,58251,999,14780,-.33559768E-4,-.1185E-4,0
STARLINK-30883,2023-171Y,2026-07-06T11:27:22.134528,15.27563557,.00016277,43.0062,334.1982,215.7326,144.3417,0,U,58252,999,14790,-.23667687E-4,-.913E-5,0
ZHONGXING-6E,2023-172A,2026-07-06T21:10:59.817792,1.00266058,.0002218,0.0156,35.4619,73.3561,249.2965,0,U,58253,999,985,0,0,0
ORBASTRO-PC-1,2023-174C,2026-07-06T19:58:52.880736,15.49749219,.0007285,97.3763,274.3096,103.3506,256.8558,0,U,58258,999,14851,.39888E-3,.22115E-3,0
LEMUR-2-BASS,2023-174D,2026-07-06T18:57:36.837216,15.43791093,.0007987,97.3840,272.7845,102.9943,257.2197,0,U,58259,999,14838,.34469E-3,.15539E-3,0
PLATERO,2023-174G,2026-07-06T05:42:24.245568,15.64875805,.00036975,97.3927,286.1777,45.9800,314.1764,0,U,58262,999,14916,.99406793E-3,.97877E-3,0
