STARLINK-30872          
1 58225U 23170V   26187.13968311 -.00003143  00000+0 -10488-3 0  9997
2 58225  43.0023 103.3704 0000502 306.6287  53.4518 15.27544701150089
STARLINK-30865          
1 58226U 23170W   26187.11945765 -.00001557  00000+0 -47092-4 0  9993
2 58226  43.0017 234.1833 0000907 259.4373 100.6376 15.27569826148549
STARLINK-30874          
1 58227U 23170X   26186.88100322 -.00003514  00000+0 -11834-3 0  9998
2 58227  43.0030 246.8748 0001305 259.0062 101.0643 15.27550344148372
STARLINK-30871          
1 58228U 23170Y   26187.21178258 -.00002946  00000+0 -97625-4 0  9991
2 58228  43.0033 245.0552 0001513 262.9312  97.1368 15.27558597148425
STARLINK-30861          
1 58230U 23171A   26187.43088565  .00035595  00000+0  11120-2 0  9998
2 58230  42.9941 334.6503 0012109 298.9473  61.0166 15.32489684147897
STARLINK-30867          
1 58231U 23171B   26187.46705070 -.00016830  00000+0 -60249-3 0  9999
2 58231  43.0068 334.1396 0002160 305.3215  54.7434 15.27628619147904
STARLINK-30880          
1 58232U 23171C   26187.46320879 -.00017052  00000+0 -61324-3 0  9992
2 58232  43.0038 334.1079 0001459 241.1860 118.8845 15.27489345147902
STARLINK-30777          
1 58233U 23171D   26187.45177300 -.00002433  00000+0 -78922-4 0  9991
2 58233  43.0033 334.8726 0001342 287.9520  72.1186 15.27582815147890
STARLINK-30860          
1 58234U 23171E   26187.45934013 -.00000938  00000+0 -24560-4 0  9991
2 58234  43.0015 334.0768 0000550 247.4529 112.6264 15.27587295147905
STARLINK-30853          
1 58236U 23171G   26187.70946618  .00001814  00000+0  75414-4 0  9991
2 58236  43.0030 333.3668 0001243 132.5876 227.5080 15.27579274147937
STARLINK-30866          
1 58237U 23171H   26187.41964573 -.00006873  00000+0 -24048-3 0  9998
2 58237  43.0044 334.6255 0001820 237.5541 122.5135 15.27575694147897
STARLINK-30817          
1 58238U 23171J   26187.50946738 -.00004709  00000+0 -16178-3 0  9993
2 58238  43.0031 334.4391 0001287 282.6871  77.3837 15.27567086147901
STARLINK-30847          
1 58239U 23171K   26187.44022126 -.00001502  00000+0 -45087-4 0  9993
2 58239  43.0035 334.7838 0001150 274.0374  86.0346 15.27569043147892
STARLINK-30848          
1 58240U 23171L   26187.42093364  .00015267  00000+0  56427-3 0  9995
2 58240  42.9982 334.6249 0001711 130.4612 229.6389 15.27515153147896
STARLINK-30843          
1 58241U 23171M   26186.78248965 -.00001475  00000+0 -44108-4 0  9995
2 58241  43.0013 338.4344 0001278 284.0294  76.0415 15.27568196147813
STARLINK-30877          
1 58242U 23171N   26187.48118359  .00001116  00000+0  50071-4 0  9993
2 58242  43.0016 334.2181 0001179 243.1501 116.9231 15.27575804147901
STARLINK-30864          
1 58243U 23171P   26187.42994843 -.00001645  00000+0 -50270-4 0  9998
2 58243  43.0048 334.7108 0002342 281.2339  78.8249 15.27558667147796
STARLINK-30854          
1 58244U 23171Q   26186.77994197 -.00004827  00000+0 -16612-3 0  9994
2 58244  43.0047 338.4268 0001523 265.2046  94.8632 15.27552668147790
STARLINK-30849          
1 58245U 23171R   26187.42608846  .00005020  00000+0  19196-3 0  9995
2 58245  43.0025 334.6748 0001284 270.7863  89.2841 15.27556150147891
STARLINK-30886          
1 58246U 23171S   26187.48373809 -.00000214  00000+0  17620-5 0  9993
2 58246  43.0017 334.2484 0001299 234.8432 125.2298 15.27598808147900
STARLINK-30850          
1 58247U 23171T   26187.42220318  .00001702  00000+0  71348-4 0  9992
2 58247  43.0018 334.6451 0001157 253.3648 106.7077 15.27582213147898
STARLINK-30823          
1 58248U 23171U   26187.42735981  .00000634  00000+0  32545-4 0  9999
2 58248  43.0029 334.6817 0001322 269.7483  90.3217 15.27582393147892
STARLINK-30873          
1 58249U 23171V   26187.42351289  .00004975  00000+0  19027-3 0  9996
2 58249  43.0039 334.6560 0001894 262.1294  97.9343 15.27566168147895
STARLINK-30808          
1 58250U 23171W   26187.47921823  .00053531  00000+0  17922-2 0  9993
2 58250  42.9976 334.1882 0003439 278.4466  81.5997 15.30171257147906
STARLINK-30881          
1 58251U 23171X   26186.84271790 -.00001185  00000+0 -33560-4 0  9993
2 58251  42.9996 337.9466 0000970 258.5488 101.5255 15.27574796147808
STARLINK-30883          
1 58252U 23171Y   26187.47733952 -.00000913  00000+0 -23668-4 0  9993
2 58252  43.0062 334.1982 0001627 215.7326 144.3417 15.27563557147902
ZHONGXING-6E            
1 58253U 23172A   26187.88263678  .00000000  00000+0  00000+0 0  9998
2 58253   0.0156  35.4619 0002218  73.3561 249.2965  1.00266058  9850
ORBASTRO-PC-1           
1 58258U 23174C   26187.83255649  .00022115  00000+0  39888-3 0  9990
2 58258  97.3763 274.3096 0007285 103.3506 256.8558 15.49749219148515
LEMUR-2-BASS            
1 58259U 23174D   26187.79000969  .00015539  00000+0  34469-3 0  9991
2 58259  97.3840 272.7845 0007987 102.9943 257.2197 15.43791093148385
PLATERO                 
1 58262U 23174G   26187.23778062  .00097877  00000+0  99407-3 0  9998
2 58262  97.3927 286.1777 0003697  45.9800 314.1764 15.64875805149167
